1 37673U 11024A   14021.54355484  .00000441  00000-0  77470-4 0  9998
2 37673 098.0126 030.8492 0001043 103.1092 008.2544 14.72357806140656
1 37673U 11024A   14022.63498071  .00000485  00000-0  84384-4 0  9999
2 37673 098.0125 031.9250 0001041 104.6579 028.3084 14.72359606140813
1 37673U 11024A   14023.65501309  .00000526  00000-0  90975-4 0  9990
2 37673 098.0124 032.9304 0001043 105.8482 030.5355 14.72360833140967
1 37673U 11024A   14025.55324243  .00000501  00000-0  87171-4 0  9998
2 37673 098.0124 034.8011 0001441 104.9974 006.5128 14.72273256141246
1 37673U 11024A   14026.90298705  .00000575  00000-0  98782-4 0  9992
2 37673 098.0124 036.1312 0001452 105.2151 315.8780 14.72275206141447
1 37673U 11024A   14028.12268184  .00000593  00000-0  10171-3 0  9991
2 37673 098.0125 037.3331 0001457 104.8254 296.9872 14.72276217141620
1 37673U 11024A   14029.14284453  .00000649  00000-0  11062-3 0  9993
2 37673 098.0127 038.3383 0001463 105.7242 299.8888 14.72278339141776
1 37673U 11024A   14030.65126473  .00000638  00000-0  10877-3 0  9999
2 37673 098.0129 039.8248 0001468 104.7009 011.0274 14.72280232141991
1 37673U 11024A   14031.67424955  .00000586  00000-0  10051-3 0  9994
2 37673 098.0130 040.8330 0001470 103.5168 030.9771 14.72281600142143
1 37673U 11024A   14033.01861998  .00000656  00000-0  11158-3 0  9993
2 37673 098.0131 042.1580 0001467 103.9023 311.7475 14.72283393142340
1 37673U 11024A   14034.10347810  .00000555  00000-0  95583-4 0  9999
2 37673 098.0130 043.2272 0001472 102.9598 299.2057 14.72286564142508
